start=new Date('2023-06-19T00:00:00.000Z').valueOf();
sats=[{"APOAPSIS":"548.000","TIME_SYSTEM":"UTC","MEAN_MOTION_DDOT":"0.0000000000000","ELEMENT_SET_NO":"999","OBJECT_NAME":"STARLINK-1641","ECCENTRICITY":"0.00011600","LAUNCH_DATE":"2020-08-18","PERIAPSIS":"546.393","SEMIMAJOR_AXIS":"6925.332","MEAN_ELEMENT_THEORY":"SGP4","INCLINATION":"53.0540","TLE_LINE2":"2 46174  53.0540 105.3716 0001160  82.6027 277.5094 15.06405559156025","ARG_OF_PERICENTER":"82.6027","REF_FRAME":"TEME","CENTER_NAME":"EARTH","MEAN_ANOMALY":"277.5094","OBJECT_TYPE":"PAYLOAD","RA_OF_ASC_NODE":"105.3716","COUNTRY_CODE":"US","OBJECT_ID":"2020-057BK","EPHEMERIS_TYPE":"0","RCS_SIZE":"LARGE","FILE":"3936420","MEAN_MOTION":"15.06405559","MEAN_MOTION_DOT":"0.00006228","CLASSIFICATION_TYPE":"U","DECAY_DATE":null,"REV_AT_EPOCH":"15602","PERIOD":"95.592","TLE_LINE1":"1 46174U 20057BK  23169.23872627  .00006228  00000-0  43655-3 0  9998","BSTAR":"0.00043655000000","SITE":"AFETR","NORAD_CAT_ID":"46174","EPOCH":"2023-06-18T05:43:45.949728","GP_ID":"234207293"},{"PERIAPSIS":"546.526","LAUNCH_DATE":"2020-09-03","ECCENTRICITY":"0.00010230","SEMIMAJOR_AXIS":"6925.369","MEAN_ELEMENT_THEORY":"SGP4","TIME_SYSTEM":"UTC","APOAPSIS":"547.943","MEAN_MOTION_DDOT":"0.0000000000000","ELEMENT_SET_NO":"999","OBJECT_NAME":"STARLINK-1734","DECAY_DATE":null,"CLASSIFICATION_TYPE":"U","REV_AT_EPOCH":"15556","PERIOD":"95.593","BSTAR":"0.00024349000000","TLE_LINE1":"1 46325U 20062A   23169.58199138  .00003347  00000-0  24349-3 0  9997","SITE":"AFETR","GP_ID":"234242518","EPOCH":"2023-06-18T13:58:04.055232","NORAD_CAT_ID":"46325","INCLINATION":"53.0536","TLE_LINE2":"2 46325  53.0536 118.8319 0001023  89.5442 270.5664 15.06393231155568","ARG_OF_PERICENTER":"89.5442","CENTER_NAME":"EARTH","REF_FRAME":"TEME","COUNTRY_CODE":"US","RA_OF_ASC_NODE":"118.8319","OBJECT_TYPE":"PAYLOAD","MEAN_ANOMALY":"270.5664","OBJECT_ID":"2020-062A","EPHEMERIS_TYPE":"0","FILE":"3936745","RCS_SIZE":"LARGE","MEAN_MOTION":"15.06393231","MEAN_MOTION_DOT":"0.00003347"},{"PERIAPSIS":"546.464","LAUNCH_DATE":"2020-09-03","ECCENTRICITY":"0.00010980","MEAN_ELEMENT_THEORY":"SGP4","SEMIMAJOR_AXIS":"6925.360","TIME_SYSTEM":"UTC","APOAPSIS":"547.985","OBJECT_NAME":"STARLINK-1654","ELEMENT_SET_NO":"999","MEAN_MOTION_DDOT":"0.0000000000000","BSTAR":"-0.00005706400000","TLE_LINE1":"1 46326U 20062B   23169.71239850 -.00001131  00000-0 -57064-4 0  9991","PERIOD":"95.592","REV_AT_EPOCH":"15434","DECAY_DATE":null,"CLASSIFICATION_TYPE":"U","GP_ID":"234242269","EPOCH":"2023-06-18T17:05:51.230400","NORAD_CAT_ID":"46326","SITE":"AFETR","COUNTRY_CODE":"US","MEAN_ANOMALY":"283.5070","OBJECT_TYPE":"PAYLOAD","RA_OF_ASC_NODE":"163.4877","CENTER_NAME":"EARTH","REF_FRAME":"TEME","ARG_OF_PERICENTER":"76.6042","TLE_LINE2":"2 46326  53.0538 163.4877 0001098  76.6042 283.5070 15.06396345154340","INCLINATION":"53.0538","MEAN_MOTION_DOT":"-0.00001131","MEAN_MOTION":"15.06396345","FILE":"3936745","RCS_SIZE":"LARGE","EPHEMERIS_TYPE":"0","OBJECT_ID":"2020-062B"},{"FILE":"3936420","RCS_SIZE":"LARGE","EPHEMERIS_TYPE":"0","OBJECT_ID":"2020-062C","MEAN_MOTION_DOT":"0.00000143","MEAN_MOTION":"15.06390330","ARG_OF_PERICENTER":"28.5659","TLE_LINE2":"2 46327  53.0538 165.2306 0000395  28.5659 331.5352 15.06390330154274","INCLINATION":"53.0538","COUNTRY_CODE":"US","OBJECT_TYPE":"PAYLOAD","MEAN_ANOMALY":"331.5352","RA_OF_ASC_NODE":"165.2306","CENTER_NAME":"EARTH","REF_FRAME":"TEME","SITE":"AFETR","GP_ID":"234209032","EPOCH":"2023-06-18T06:28:53.024160","NORAD_CAT_ID":"46327","REV_AT_EPOCH":"15427","CLASSIFICATION_TYPE":"U","DECAY_DATE":null,"BSTAR":"0.00002849400000","TLE_LINE1":"1 46327U 20062C   23169.27005815  .00000143  00000-0  28494-4 0  9990","PERIOD":"95.593","OBJECT_NAME":"STARLINK-1673","ELEMENT_SET_NO":"999","MEAN_MOTION_DDOT":"0.0000000000000","TIME_SYSTEM":"UTC","APOAPSIS":"547.517","MEAN_ELEMENT_THEORY":"SGP4","SEMIMAJOR_AXIS":"6925.378","PERIAPSIS":"546.970","LAUNCH_DATE":"2020-09-03","ECCENTRICITY":"0.00003950"},{"GP_ID":"234243761","EPOCH":"2023-06-18T15:32:55.270752","NORAD_CAT_ID":"46328","SITE":"AFETR","PERIOD":"95.593","BSTAR":"-0.00004475700000","TLE_LINE1":"1 46328U 20062D   23169.64786193 -.00000948  00000-0 -44757-4 0  9992","CLASSIFICATION_TYPE":"U","DECAY_DATE":null,"REV_AT_EPOCH":"15461","MEAN_MOTION":"15.06392956","MEAN_MOTION_DOT":"-0.00000948","OBJECT_ID":"2020-062D","EPHEMERIS_TYPE":"0","FILE":"3936745","RCS_SIZE":"LARGE","CENTER_NAME":"EARTH","REF_FRAME":"TEME","COUNTRY_CODE":"US","OBJECT_TYPE":"PAYLOAD","RA_OF_ASC_NODE":"143.5363","MEAN_ANOMALY":"271.2313","INCLINATION":"53.0537","ARG_OF_PERICENTER":"88.8840","TLE_LINE2":"2 46328  53.0537 143.5363 0001434  88.8840 271.2313 15.06392956154613","SEMIMAJOR_AXIS":"6925.370","MEAN_ELEMENT_THEORY":"SGP4","LAUNCH_DATE":"2020-09-03","PERIAPSIS":"546.242","ECCENTRICITY":"0.00014340","ELEMENT_SET_NO":"999","MEAN_MOTION_DDOT":"0.0000000000000","OBJECT_NAME":"STARLINK-1686","TIME_SYSTEM":"UTC","APOAPSIS":"548.228"},{"ECCENTRICITY":"0.00010740","LAUNCH_DATE":"2020-09-03","PERIAPSIS":"546.508","SEMIMAJOR_AXIS":"6925.387","MEAN_ELEMENT_THEORY":"SGP4","APOAPSIS":"547.996","TIME_SYSTEM":"UTC","MEAN_MOTION_DDOT":"0.0000000000000","ELEMENT_SET_NO":"999","OBJECT_NAME":"STARLINK-1695","CLASSIFICATION_TYPE":"U","DECAY_DATE":null,"REV_AT_EPOCH":"15453","PERIOD":"95.593","TLE_LINE1":"1 46329U 20062E   23169.15026582 -.00000292  00000-0 -72983-6 0  9994","BSTAR":"-0.00000072983000","SITE":"AFETR","NORAD_CAT_ID":"46329","GP_ID":"234207553","EPOCH":"2023-06-18T03:36:22.966848","INCLINATION":"53.0542","ARG_OF_PERICENTER":"86.1229","TLE_LINE2":"2 46329  53.0542 145.7663 0001074  86.1229 273.9883 15.06387398154535","REF_FRAME":"TEME","CENTER_NAME":"EARTH","MEAN_ANOMALY":"273.9883","OBJECT_TYPE":"PAYLOAD","RA_OF_ASC_NODE":"145.7663","COUNTRY_CODE":"US","OBJECT_ID":"2020-062E","EPHEMERIS_TYPE":"0","RCS_SIZE":"LARGE","FILE":"3936420","MEAN_MOTION":"15.06387398","MEAN_MOTION_DOT":"-0.00000292"},{"NORAD_CAT_ID":"46330","GP_ID":"234242769","EPOCH":"2023-06-18T16:04:45.985152","SITE":"AFETR","TLE_LINE1":"1 46330U 20062F   23169.66997668 -.00000666  00000-0 -25840-4 0  9997","BSTAR":"-0.00002584000000","PERIOD":"95.593","REV_AT_EPOCH":"15462","DECAY_DATE":null,"CLASSIFICATION_TYPE":"U","MEAN_MOTION_DOT":"-0.00000666","MEAN_MOTION":"15.06392144","RCS_SIZE":"LARGE","FILE":"3936745","OBJECT_ID":"2020-062F","EPHEMERIS_TYPE":"0","RA_OF_ASC_NODE":"143.4363","OBJECT_TYPE":"PAYLOAD","MEAN_ANOMALY":"265.3456","COUNTRY_CODE":"US","REF_FRAME":"TEME","CENTER_NAME":"EARTH","TLE_LINE2":"2 46330  53.0539 143.4363 0001347  94.7687 265.3456 15.06392144154627","ARG_OF_PERICENTER":"94.7687","INCLINATION":"53.0539","MEAN_ELEMENT_THEORY":"SGP4","SEMIMAJOR_AXIS":"6925.373","ECCENTRICITY":"0.00013470","LAUNCH_DATE":"2020-09-03","PERIAPSIS":"546.305","OBJECT_NAME":"STARLINK-1710","MEAN_MOTION_DDOT":"0.0000000000000","ELEMENT_SET_NO":"999","APOAPSIS":"548.170","TIME_SYSTEM":"UTC"},{"MEAN_ELEMENT_THEORY":"SGP4","SEMIMAJOR_AXIS":"6925.382","ECCENTRICITY":"0.00013530","LAUNCH_DATE":"2020-09-03","PERIAPSIS":"546.310","OBJECT_NAME":"STARLINK-1719","ELEMENT_SET_NO":"999","MEAN_MOTION_DDOT":"0.0000000000000","APOAPSIS":"548.184","TIME_SYSTEM":"UTC","NORAD_CAT_ID":"46331","GP_ID":"234208533","EPOCH":"2023-06-18T08:57:29.940480","SITE":"AFETR","TLE_LINE1":"1 46331U 20062G   23169.37326320 -.00001962  00000-0 -11287-3 0  9996","BSTAR":"-0.00011287000000","PERIOD":"95.593","REV_AT_EPOCH":"15429","DECAY_DATE":null,"CLASSIFICATION_TYPE":"U","MEAN_MOTION_DOT":"-0.00001962","MEAN_MOTION":"15.06389086","RCS_SIZE":"LARGE","FILE":"3936420","OBJECT_ID":"2020-062G","EPHEMERIS_TYPE":"0","MEAN_ANOMALY":"275.4612","OBJECT_TYPE":"PAYLOAD","RA_OF_ASC_NODE":"164.7645","COUNTRY_CODE":"US","REF_FRAME":"TEME","CENTER_NAME":"EARTH","TLE_LINE2":"2 46331  53.0538 164.7645 0001353  84.6531 275.4612 15.06389086154299","ARG_OF_PERICENTER":"84.6531","INCLINATION":"53.0538"},{"APOAPSIS":"512.224","TIME_SYSTEM":"UTC","OBJECT_NAME":"STARLINK-1721","MEAN_MOTION_DDOT":"0.0000000000000","ELEMENT_SET_NO":"999","ECCENTRICITY":"0.00022460","PERIAPSIS":"509.129","LAUNCH_DATE":"2020-09-03","MEAN_ELEMENT_THEORY":"SGP4","SEMIMAJOR_AXIS":"6888.812","ARG_OF_PERICENTER":"52.2781","TLE_LINE2":"2 46332  53.0507 156.1257 0002246  52.2781 307.8417 15.18400350154441","INCLINATION":"53.0507","OBJECT_TYPE":"PAYLOAD","RA_OF_ASC_NODE":"156.1257","MEAN_ANOMALY":"307.8417","COUNTRY_CODE":"US","REF_FRAME":"TEME","CENTER_NAME":"EARTH","RCS_SIZE":"LARGE","FILE":"3936745","OBJECT_ID":"2020-062H","EPHEMERIS_TYPE":"0","MEAN_MOTION_DOT":"0.00011102","MEAN_MOTION":"15.18400350","REV_AT_EPOCH":"15444","DECAY_DATE":null,"CLASSIFICATION_TYPE":"U","TLE_LINE1":"1 46332U 20062H   23169.69318262  .00011102  00000-0  54759-3 0  9994","BSTAR":"0.00054759000000","PERIOD":"94.837","SITE":"AFETR","NORAD_CAT_ID":"46332","EPOCH":"2023-06-18T16:38:10.978368","GP_ID":"234243262"},{"ECCENTRICITY":"0.00010770","LAUNCH_DATE":"2020-09-03","PERIAPSIS":"546.494","MEAN_ELEMENT_THEORY":"SGP4","SEMIMAJOR_AXIS":"6925.375","APOAPSIS":"547.986","TIME_SYSTEM":"UTC","OBJECT_NAME":"STARLINK-1723","MEAN_MOTION_DDOT":"0.0000000000000","ELEMENT_SET_NO":"999","TLE_LINE1":"1 46333U 20062J   23169.26636961 -.00000380  00000-0 -66166-5 0  9992","BSTAR":"-0.00000661660000","PERIOD":"95.593","REV_AT_EPOCH":"15427","CLASSIFICATION_TYPE":"U","DECAY_DATE":null,"NORAD_CAT_ID":"46333","EPOCH":"2023-06-18T06:23:34.334304","GP_ID":"234242519","SITE":"AFETR","OBJECT_TYPE":"PAYLOAD","RA_OF_ASC_NODE":"165.2490","MEAN_ANOMALY":"275.9035","COUNTRY_CODE":"US","REF_FRAME":"TEME","CENTER_NAME":"EARTH","ARG_OF_PERICENTER":"84.2077","TLE_LINE2":"2 46333  53.0544 165.2490 0001077  84.2077 275.9035 15.06391295154273","INCLINATION":"53.0544","MEAN_MOTION_DOT":"-0.00000380","MEAN_MOTION":"15.06391295","RCS_SIZE":"LARGE","FILE":"3936745","EPHEMERIS_TYPE":"0","OBJECT_ID":"2020-062J"}];
